CCSDS_OMM_VERS = 2.0
CREATION_DATE  = 
ORIGINATOR     = 

OBJECT_NAME    = CZ-2C R/B
OBJECT_ID      = 2022-132E
CENTER_NAME    = EARTH
REF_FRAME      = TEME
TIME_SYSTEM    = UTC
MEAN_ELEMENT_THEORY = SGP/SGP4

EPOCH          = 2025-12-09T06:13:42.140928
MEAN_MOTION    = 15.54481848
ECCENTRICITY   = .00234661
INCLINATION    = 97.2947
RA_OF_ASC_NODE = 339.3918
ARG_OF_PERICENTER = 68.5144
MEAN_ANOMALY   = 291.8609

EPHEMERIS_TYPE = 0
CLASSIFICATION_TYPE = U
NORAD_CAT_ID   = 54039
ELEMENT_SET_NO = 999
REV_AT_EPOCH   = 17629
BSTAR          = .59260007E-3
MEAN_MOTION_DOT = .39487E-3
MEAN_MOTION_DDOT = 0

CCSDS_OMM_VERS = 2.0
CREATION_DATE  = 
ORIGINATOR     = 

OBJECT_NAME    = GSLV R/B
OBJECT_ID      = 2022-138AN
CENTER_NAME    = EARTH
REF_FRAME      = TEME
TIME_SYSTEM    = UTC
MEAN_ELEMENT_THEORY = SGP/SGP4

EPOCH          = 2025-12-09T02:38:42.578592
MEAN_MOTION    = 14.96100971
ECCENTRICITY   = .00238888
INCLINATION    = 87.3826
RA_OF_ASC_NODE = 196.6897
ARG_OF_PERICENTER = 117.5101
MEAN_ANOMALY   = 242.8562

EPHEMERIS_TYPE = 0
CLASSIFICATION_TYPE = U
NORAD_CAT_ID   = 54149
ELEMENT_SET_NO = 999
REV_AT_EPOCH   = 17038
BSTAR          = .2481458E-3
MEAN_MOTION_DOT = .2833E-4
MEAN_MOTION_DDOT = 0

CCSDS_OMM_VERS = 2.0
CREATION_DATE  = 
ORIGINATOR     = 

OBJECT_NAME    = XRISM
OBJECT_ID      = 2023-137A
CENTER_NAME    = EARTH
REF_FRAME      = TEME
TIME_SYSTEM    = UTC
MEAN_ELEMENT_THEORY = SGP/SGP4

EPOCH          = 2025-12-08T20:51:11.161152
MEAN_MOTION    = 15.10278587
ECCENTRICITY   = .0007687
INCLINATION    = 31.0004
RA_OF_ASC_NODE = 150.5348
ARG_OF_PERICENTER = 206.2287
MEAN_ANOMALY   = 153.7962

EPHEMERIS_TYPE = 0
CLASSIFICATION_TYPE = U
NORAD_CAT_ID   = 57800
ELEMENT_SET_NO = 999
REV_AT_EPOCH   = 12404
BSTAR          = .36864E-3
MEAN_MOTION_DOT = .6285E-4
MEAN_MOTION_DDOT = 0

CCSDS_OMM_VERS = 2.0
CREATION_DATE  = 
ORIGINATOR     = 

OBJECT_NAME    = ACS3
OBJECT_ID      = 2024-077B
CENTER_NAME    = EARTH
REF_FRAME      = TEME
TIME_SYSTEM    = UTC
MEAN_ELEMENT_THEORY = SGP/SGP4

EPOCH          = 2025-12-09T06:53:37.949856
MEAN_MOTION    = 13.85216845
ECCENTRICITY   = .00779488
INCLINATION    = 97.2715
RA_OF_ASC_NODE = 299.6641
ARG_OF_PERICENTER = 346.1346
MEAN_ANOMALY   = 13.7674

EPHEMERIS_TYPE = 0
CLASSIFICATION_TYPE = U
NORAD_CAT_ID   = 59588
ELEMENT_SET_NO = 999
REV_AT_EPOCH   = 8166
BSTAR          = .20843387E-1
MEAN_MOTION_DOT = .24263E-3
MEAN_MOTION_DDOT = 0

CCSDS_OMM_VERS = 2.0
CREATION_DATE  = 
ORIGINATOR     = 

OBJECT_NAME    = SZ-21 MODULE
OBJECT_ID      = 2025-246C
CENTER_NAME    = EARTH
REF_FRAME      = TEME
TIME_SYSTEM    = UTC
MEAN_ELEMENT_THEORY = SGP/SGP4

EPOCH          = 2025-12-09T05:09:56.835360
MEAN_MOTION    = 15.62223553
ECCENTRICITY   = .00062826
INCLINATION    = 41.4773
RA_OF_ASC_NODE = 37.5424
ARG_OF_PERICENTER = 241.0117
MEAN_ANOMALY   = 119.0093

EPHEMERIS_TYPE = 0
CLASSIFICATION_TYPE = U
NORAD_CAT_ID   = 66515
ELEMENT_SET_NO = 999
REV_AT_EPOCH   = 389
BSTAR          = .35922039E-3
MEAN_MOTION_DOT = .32371E-3
MEAN_MOTION_DDOT = 0

