CZ-2C R/B               
1 54039U 22132E   25343.25951552  .00039487  00000+0  59260-3 0  9997
2 54039  97.2947 339.3918 0023466  68.5144 291.8609 15.54481848176294
GSLV R/B                
1 54149U 22138AN  25343.11021503  .00002833  00000+0  24815-3 0  9997
2 54149  87.3826 196.6897 0023888 117.5101 242.8562 14.96100971170386
XRISM                   
1 57800U 23137A   25342.86887918  .00006285  00000+0  36864-3 0  9997
2 57800  31.0004 150.5348 0007687 206.2287 153.7962 15.10278587124049
ACS3                    
1 59588U 24077B   25343.28724479  .00024263  00000+0  20843-1 0  9999
2 59588  97.2715 299.6641 0077948 346.1346  13.7674 13.85216845 81669
SZ-21 MODULE            
1 66515U 25246C   25343.21524115  .00032371  00000+0  35922-3 0  9999
2 66515  41.4773  37.5424 0006282 241.0117 119.0093 15.62223553  3897
